API VERSION: 1.2
API SOURCE: NASA/JPL Horizons API



*******************************************************************************
Ephemeris / API_USER Fri Apr  3 11:29:06 2026 Pasadena, USA      / Horizons
*******************************************************************************
Target body name: Mercury (199)                   {source: DE441}
Center body name: Earth (399)                     {source: DE441}
Center-site name: BODY CENTER
*******************************************************************************
Start time      : A.D. 2025-Jan-08 06:36:59.9996 TDB
Stop  time      : A.D. 2025-Jan-10 06:36:59.9996 TDB
Step-size       : 60 minutes
*******************************************************************************
Center geodetic : 0.0, 0.0, 0.0                   {E-lon(deg),Lat(deg),Alt(km)}
Center cylindric: 0.0, 0.0, 0.0                   {E-lon(deg),Dxy(km),Dz(km)}
Center radii    : 6378.137, 6378.137, 6356.752 km {Equator_a, b, pole_c}
Output units    : AU-D
Calendar mode   : Mixed Julian/Gregorian
Output type     : GEOMETRIC cartesian states
Output format   : 3 (position, velocity, LT, range, range-rate)
EOP file        : eop.260402.p260629
EOP coverage    : DATA-BASED 1962-JAN-20 TO 2026-APR-02. PREDICTS-> 2026-JUN-28
Reference frame : Ecliptic of J2000.0
*******************************************************************************
            JDTDB,            Calendar Date (TDB),                      X,                      Y,                      Z,                     VX,                     VY,                     VZ,                     LT,                     RG,                     RR,
**************************************************************************************************************************************************************************************************************************************************************************
$$SOE
2460685.025694440, A.D. 2025-Jan-09 12:36:59.9996,  2.695754701857335E-02, -1.271629596907598E+00, -8.240845736740844E-04,  3.211485602774169E-02, -1.136901354417048E-02, -2.825981155045658E-03,  7.345971697340021E-03,  1.271915571171303E+00,  1.204894495091013E-02,
2460685.067361107, A.D. 2025-Jan-09 13:36:59.9996,  2.829639594659086E-02, -1.272102106901444E+00, -9.418313749107658E-04,  3.214987177273174E-02, -1.131145677947934E-02, -2.825862719702994E-03,  7.348868438523744E-03,  1.272417126359512E+00,  1.202570656413882E-02,
2460685.109027773, A.D. 2025-Jan-09 14:36:59.9996,  2.963670127141703E-02, -1.272572217525693E+00, -1.059572918426582E-03,  3.218476308606835E-02, -1.125384384069379E-02, -2.825728788318563E-03,  7.351759589259182E-03,  1.272917713591605E+00,  1.200248305422936E-02,
2460685.150694440, A.D. 2025-Jan-09 15:36:59.9996,  3.097845780983706E-02, -1.273039926444397E+00, -1.177308559037492E-03,  3.221953003670945E-02, -1.119617495031045E-02, -2.825579384137536E-03,  7.354645153124085E-03,  1.273417333487052E+00,  1.197927440183151E-02,
2460685.192361107, A.D. 2025-Jan-09 16:36:59.9996,  3.232166038150427E-02, -1.273505231330857E+00, -1.295037652526248E-03,  3.225417269336991E-02, -1.113845032983839E-02, -2.825414530308795E-03,  7.357525133691493E-03,  1.273915986664505E+00,  1.195608058717418E-02,
2460685.234027773, A.D. 2025-Jan-09 17:36:59.9996,  3.366630380893029E-02, -1.273968129867584E+00, -1.412759555638219E-03,  3.228869112451792E-02, -1.108067019980482E-02, -2.825234249885150E-03,  7.360399534529633E-03,  1.274413673741783E+00,  1.193290159006899E-02,
2460685.275694440, A.D. 2025-Jan-09 18:36:59.9996,  3.501238291747408E-02, -1.274428619746258E+00, -1.530473626077399E-03,  3.232308539837166E-02, -1.102283477976079E-02, -2.825038565823579E-03,  7.363268359201828E-03,  1.274910395335857E+00,  1.190973738991380E-02,
2460685.317361107, A.D. 2025-Jan-09 19:36:59.9996,  3.635989253533178E-02, -1.274886698667684E+00, -1.648179222501731E-03,  3.235735558289575E-02, -1.096494428828691E-02, -2.824827500985461E-03,  7.366131611266397E-03,  1.275406152062830E+00,  1.188658796569629E-02,
2460685.359027773, A.D. 2025-Jan-09 20:36:59.9996,  3.770882749352630E-02, -1.275342364341757E+00, -1.765875704520614E-03,  3.239150174579804E-02, -1.090699894299896E-02, -2.824601078136773E-03,  7.368989294276547E-03,  1.275900944537922E+00,  1.186345329599750E-02,
2460685.400694440, A.D. 2025-Jan-09 21:36:59.9996,  3.905918262589601E-02, -1.275795614487418E+00, -1.883562432689026E-03,  3.242552395452609E-02, -1.084899896055370E-02, -2.824359319948374E-03,  7.371841411780287E-03,  1.276394773375451E+00,  1.184033335899534E-02,
2460685.442361107, A.D. 2025-Jan-09 22:36:59.9996,  4.041095276908428E-02, -1.276246446832617E+00, -2.001238768505634E-03,  3.245942227626398E-02, -1.079094455665448E-02, -2.824102248996208E-03,  7.374687967320324E-03,  1.276887639188818E+00,  1.181722813246807E-02,
2460685.484027773, A.D. 2025-Jan-09 23:36:59.9996,  4.176413276252826E-02, -1.276694859114269E+00, -2.118904074407013E-03,  3.249319677792898E-02, -1.073283594605695E-02, -2.823829887761553E-03,  7.377528964433969E-03,  1.277379542590489E+00,  1.179413759379781E-02,
2460685.525694440, A.D. 2025-Jan-10 00:36:59.9996,  4.311871744844758E-02, -1.277140849078221E+00, -2.236557713765059E-03,  3.252684752616834E-02, -1.067467334257478E-02, -2.823542258631256E-03,  7.380364406653048E-03,  1.277870484191979E+00,  1.177106171997402E-02,
2460685.567361107, A.D. 2025-Jan-10 01:36:59.9996,  4.447470167183337E-02, -1.277584414479206E+00, -2.354199050881910E-03,  3.256037458735610E-02, -1.061645695908535E-02, -2.823239383897981E-03,  7.383194297503789E-03,  1.278360464603840E+00,  1.174800048759693E-02,
2460685.609027773, A.D. 2025-Jan-10 02:36:59.9996,  4.583208028043637E-02, -1.278025553080810E+00, -2.471827450987051E-03,  3.259377802758985E-02, -1.055818700753543E-02, -2.822921285760451E-03,  7.386018640506764E-03,  1.278849484435635E+00,  1.172495387288097E-02,
2460685.650694440, A.D. 2025-Jan-10 03:36:59.9996,  4.719084812475572E-02, -1.278464262655431E+00, -2.589442280232742E-03,  3.262705791268777E-02, -1.049986369894687E-02, -2.822587986323706E-03,  7.388837439176756E-03,  1.279337544295934E+00,  1.170192185165823E-02,
2460685.692361107, A.D. 2025-Jan-10 04:36:59.9996,  4.855100005802709E-02, -1.278900540984238E+00, -2.707042905690621E-03,  3.266021430818540E-02, -1.044148724342234E-02, -2.822239507599320E-03,  7.391650697022695E-03,  1.279824644792287E+00,  1.167890439938184E-02,
2460685.734027773, A.D. 2025-Jan-10 05:36:59.9996,  4.991253093621090E-02, -1.279334385857137E+00, -2.824628695347131E-03,  3.269324727933265E-02, -1.038305785015096E-02, -2.821875871505692E-03,  7.394458417547557E-03,  1.280310786531216E+00,  1.165590149112939E-02,
2460685.775694440, A.D. 2025-Jan-10 06:36:59.9996,  5.127543561798014E-02, -1.279765795072731E+00, -2.942199018100325E-03,  3.272615689109080E-02, -1.032457572741403E-02, -2.821497099868266E-03,  7.397260604248278E-03,  1.280795970118197E+00,  1.163291310160626E-02,
